#dP2018 11  5  0  0  0.00000000      96 __u+U ITR00 FIT  IAC
## 2026  86400.00000000   900.00000000 58427 0.0000000000000
+   91   C01C02C03C04C05C06C07C08C09C10C11C12C13C14E01E02E03
+        E04E05E07E08E09E11E12E14E18E19E21E24E25E26E27E30G01
+        G02G03G04G05G06G07G08G09G10G11G12G13G14G15G16G17G18
+        G19G20G21G22G23G24G25G26G27G28G29G30G31G32J01J02J03
+        R01R02R03R04R05R07R08R09R10R11R13R14R15R16R17R18R19
+        R20R21R22R23R24R26  0  0  0  0  0  0  0  0  0  0  0
++         0  0  0  0  0  0  0  0  0  0  0  0  0  0  0  0  0
++         0  0  0  0  0  0  0  0  0  0  0  0  0  0  0  0  0
++         0  0  0  0  0  0  0  0  0  0  0  0  0  0  0  0  0
++         0  0  0  0  0  0  0  0  0  0  0  0  0  0  0  0  0
++         0  0  0  0  0  0  0  0  0  0  0  0  0  0  0  0  0
++         0  0  0  0  0  0  0  0  0  0  0  0  0  0  0  0  0
%c M  cc GPS ccc cccc cccc cccc cccc ccccc ccccc ccccc ccccc
%c cc cc ccc ccc cccc cccc cccc cccc ccccc ccccc ccccc ccccc
%f  0.0000000  0.000000000  0.00000000000  0.000000000000000
%f  0.0000000  0.000000000  0.00000000000  0.000000000000000
%i    0    0    0    0      0      0      0      0         0
%i    0    0    0    0      0      0      0      0         0
/*                                                          
/*   RSA / INFORMATION & ANALYSIS CENTER (IAC) OF MCC       
/*   ULTRA-RAPID DETERMINATION                              
/* PCV:IGS14_2022 OL/AL:FES2004  NONE     YN ORB:CoN CLK:CoN
*  2018 11 05 23 45  0.00000000
PC01 -32287.301338  27084.552430    184.985600   -149.816298
PC02   4485.021778  41949.859324    678.497164    -78.387618
PC03 -14824.768175  39495.225141    316.027915    -97.520210
PC04 -39592.027812  14413.166102    194.899003    -22.005799
PC05  21918.905928  36022.539503    683.709561    163.375055
PC06 -25760.423359  29730.624567 -15341.588078     20.914000
PC07 -11054.567477  35596.884838 -19123.172930   -128.738497
PC08 -11687.250738  18798.236329  35948.656184     22.471577
PC09  -9711.885378  29356.588737 -28614.340206    259.860751
PC10     14.334340  41496.618395  -6099.612787   -214.246911
PC11  -8520.852561  15113.748948  21897.722165    -28.773394
PC12 -25082.669405   8095.045157   9076.872713    193.857728
PC13   5118.163573  26500.647647  32492.188677   -362.328452
PC14 -10406.532538  25839.501286  -2020.796768    557.376113
PE01   3927.554429  29015.697255  -4314.215810   -471.707681
PE02  -3941.421184 -29019.336797   4296.478022     34.018040
PE03   4678.138029 -22520.358826  18636.414574    -96.458162
PE04  13691.428379  10575.431435 -24018.980068   -152.683252
PE05  20398.229631 -21327.601088   2306.869471    164.469267
PE07 -24135.636341   7661.379187  15321.708359    -69.999486
PE08 -13716.441445 -10316.090984  24114.377701   6468.605373
PE09  24012.622233  -7952.444780 -15385.241085   6626.344359
PE11  28230.750814   2223.082480  -8609.435358   5705.021272
PE12  23636.915636  14289.030624  10638.188613   5433.708694
PE14  25226.029540  -8923.826043  -1191.604616   6493.838320
PE18 -28124.403515  -1412.642925 -11293.379519 999999.999999
PE19  -6534.588704  22998.791528 -17453.953966 999999.999999
PE21  -9306.614730  19150.336523 -20553.835454 999999.999999
PE24  16775.030246   1264.421288  24354.574671   6404.224837
PE25   9331.269657 -19132.050711  20584.381747   1991.896242
PE26 -16295.412944  10804.366287  22221.897947   5281.668002
PE27 -16831.402555  -1926.102008 -24261.544996 999999.999999
PE30 -14600.882711 -21460.622717 -14223.082707   5373.770270
PG01 -22401.727240 -13369.613990   5607.578159   -110.265640
PG02  10725.969387  20173.370069  14301.896354    -50.549605
PG03 -13902.521686  -7451.043890  21339.166229    157.220661
PG04   2574.054951 -17164.972295 -20187.709359    -28.409478
PG05   4410.357905  23931.198584 -10513.812670     -0.401966
PG06  -3668.808179  15589.530389  21217.626246    338.286093
PG07 -20127.557453   -950.778109 -17292.122808     93.728757
PG08 -14223.452103  -9352.727491 -20382.038381   -121.164617
PG09 -25310.562816   6489.176068   4750.936847    494.904908
PG10  11149.769140 -21262.343793 -11118.365632    167.486431
PG11 -23989.906578 -10157.406731  -5084.265088   -702.858392
PG12  11099.850340  12545.670485  20466.419666    294.335090
PG13   5917.794972  14020.500557 -21883.527222    -85.261169
PG14  10280.015875 -16446.381086  18368.863673    -96.092784
PG15  18316.846289   6460.347950 -18519.657044   -340.762145
PG16   -588.842049 -24560.355884  -9688.147286      0.435199
PG17 -18968.072871  14510.812847  11892.765748    -35.144945
PG18 -19226.445300 -18021.098822  -4384.207611     76.199421
PG19 -10904.959669  15651.685656  18239.209251   -386.563446
PG20  14190.095963 -13222.795937 -18218.318575    518.304719
PG21  17937.652248  -3459.205362 -18460.366466   -309.254509
PG22 -12308.013029 -15289.915637  18140.401398   -566.308491
PG23 -23406.033521   -873.437022  13210.892200   -206.944628
PG24  21845.471537  15382.898621    731.665047    -57.789810
PG25  15122.005742  -1285.816908  21589.328797   -672.529149
PG26   4175.362468 -26132.117132    872.692694     30.863269
PG27  -3164.153620 -14650.263055 -21994.286285    -14.214664
PG28 -13061.398431  19430.074469 -11976.223947    753.209659
PG29  25542.981563  -3670.596542   6270.943253    342.166882
PG30 -12591.514782   9539.103167 -21345.467739     -0.455968
PG31   1899.902641 -16974.850473  20249.778667     81.713812
PG32  17155.202036 -16068.023364  12315.386349   -367.717918
PJ01 -29160.385440  28776.604737  14938.835474   -280.187663
PJ02 -18646.989737  22480.272673 -26197.434511 999999.999999
PJ03 -29839.070814  28744.736273  13384.497335      0.674127
PR01 -17197.405418  14895.346887  11514.096876     34.533438
PR02 -10717.132174  21587.865148  -8399.955862    338.100959
PR03   2145.029760  14214.073469 -21050.709867    148.040403
PR04  13912.362988  -1972.070635 -21275.751480    282.654712
PR05  17172.009982 -16238.983366  -9566.792285     14.792646
PR07  -2564.608478 -13818.468581  21305.261099    -50.957380
PR08 -13605.166147   1260.046961  21585.655698     20.602760
PR09  -2455.404628 -21632.340623  13367.540961     37.185878
PR10 -11195.838860 -22831.297215  -2525.046667     35.076969
PR11 -14298.920780 -10691.730542 -18217.590517    -46.167015
PR13   2418.695056  21128.198687 -14091.125389    -16.525395
PR14  11340.632144  22707.622180   2478.705195     32.707362
PR15  14163.923847  14913.685262  15169.183570    -18.819226
PR16   9137.895986  -6380.254035  22924.959408    105.682097
PR17  13043.331904  10346.890670  19351.820290    178.071081
PR18  24369.665191   5102.787093   5439.661563     26.941305
PR19  22547.197938  -2423.265169 -11689.730218    -61.300065
PR20   6297.663108  -9524.143812 -22798.163413   -358.083249
PR21 -13441.428906 -10196.013418 -19117.311561    -12.916892
PR22 -25042.442092  -4164.236971  -3057.322609    -64.766544
PR23 -19750.665261   4834.314087  15389.954258    188.897083
PR24  -4748.928403   9929.914422  22987.346434   -173.429291
PR26   7919.941691  -9319.452400 -22377.692988     28.146521
EOF
